{"fetched_at":"2026-07-17T17:37:55.179Z","source":"https://celestrak.org/NORAD/elements/gp.php?GROUP=planet&FORMAT=JSON","constellation":"pelican","records":[{"OBJECT_NAME":"PELICAN-1","OBJECT_ID":"2023-174AS","EPOCH":"2026-07-16T20:07:31.845792","CLASSIFICATION_TYPE":"U","MEAN_MOTION":15.72084807,"ECCENTRICITY":0.00057855,"INCLINATION":97.4017,"RA_OF_ASC_NODE":300.0203,"ARG_OF_PERICENTER":199.5806,"MEAN_ANOMALY":160.5236,"EPHEMERIS_TYPE":0,"NORAD_CAT_ID":58296,"ELEMENT_SET_NO":999,"REV_AT_EPOCH":15082,"BSTAR":0.000050104383,"MEAN_MOTION_DOT":0.00006429,"MEAN_MOTION_DDOT":0},{"OBJECT_NAME":"PELICAN-2","OBJECT_ID":"2025-009Y","EPOCH":"2026-07-16T12:47:16.821312","CLASSIFICATION_TYPE":"U","MEAN_MOTION":15.40622121,"ECCENTRICITY":0.0002374,"INCLINATION":97.2051,"RA_OF_ASC_NODE":288.066,"ARG_OF_PERICENTER":117.2299,"MEAN_ANOMALY":242.919,"EPHEMERIS_TYPE":0,"NORAD_CAT_ID":62631,"ELEMENT_SET_NO":999,"REV_AT_EPOCH":8407,"BSTAR":0.000001863851,"MEAN_MOTION_DOT":-4e-8,"MEAN_MOTION_DDOT":0},{"OBJECT_NAME":"PELICAN-3","OBJECT_ID":"2025-188A","EPOCH":"2026-07-17T04:16:51.591360","CLASSIFICATION_TYPE":"U","MEAN_MOTION":15.41294631,"ECCENTRICITY":0.0001929,"INCLINATION":97.1983,"RA_OF_ASC_NODE":273.8862,"ARG_OF_PERICENTER":120.3972,"MEAN_ANOMALY":239.7466,"EPHEMERIS_TYPE":0,"NORAD_CAT_ID":65315,"ELEMENT_SET_NO":999,"REV_AT_EPOCH":4993,"BSTAR":0.00011235409,"MEAN_MOTION_DOT":0.00004594,"MEAN_MOTION_DDOT":0},{"OBJECT_NAME":"PELICAN-4","OBJECT_ID":"2025-188B","EPOCH":"2026-07-16T17:51:31.782240","CLASSIFICATION_TYPE":"U","MEAN_MOTION":15.40339865,"ECCENTRICITY":0.00015179,"INCLINATION":97.1997,"RA_OF_ASC_NODE":273.6075,"ARG_OF_PERICENTER":74.0674,"MEAN_ANOMALY":286.074,"EPHEMERIS_TYPE":0,"NORAD_CAT_ID":65316,"ELEMENT_SET_NO":999,"REV_AT_EPOCH":4986,"BSTAR":0.00012033172,"MEAN_MOTION_DOT":0.00004772,"MEAN_MOTION_DDOT":0},{"OBJECT_NAME":"PELICAN-5","OBJECT_ID":"2025-276B","EPOCH":"2026-07-16T20:55:41.730528","CLASSIFICATION_TYPE":"U","MEAN_MOTION":15.32642424,"ECCENTRICITY":0.00005528,"INCLINATION":97.4165,"RA_OF_ASC_NODE":272.8424,"ARG_OF_PERICENTER":359.3826,"MEAN_ANOMALY":0.7415,"EPHEMERIS_TYPE":0,"NORAD_CAT_ID":66667,"ELEMENT_SET_NO":999,"REV_AT_EPOCH":3506,"BSTAR":0.00009326875,"MEAN_MOTION_DOT":0.00002861,"MEAN_MOTION_DDOT":0},{"OBJECT_NAME":"PELICAN-6","OBJECT_ID":"2025-276AP","EPOCH":"2026-07-16T17:49:24.613536","CLASSIFICATION_TYPE":"U","MEAN_MOTION":15.31471289,"ECCENTRICITY":0.00024979,"INCLINATION":97.3753,"RA_OF_ASC_NODE":272.7125,"ARG_OF_PERICENTER":36.694,"MEAN_ANOMALY":323.4472,"EPHEMERIS_TYPE":0,"NORAD_CAT_ID":66703,"ELEMENT_SET_NO":999,"REV_AT_EPOCH":3505,"BSTAR":0.00031595817,"MEAN_MOTION_DOT":0.00009528,"MEAN_MOTION_DDOT":0},{"OBJECT_NAME":"PELICAN-7","OBJECT_ID":"2026-100AP","EPOCH":"2026-07-17T03:57:01.624896","CLASSIFICATION_TYPE":"U","MEAN_MOTION":15.23613837,"ECCENTRICITY":0.00033215,"INCLINATION":97.3855,"RA_OF_ASC_NODE":95.5813,"ARG_OF_PERICENTER":87.894,"MEAN_ANOMALY":272.2677,"EPHEMERIS_TYPE":0,"NORAD_CAT_ID":69017,"ELEMENT_SET_NO":999,"REV_AT_EPOCH":1137,"BSTAR":0.000076751402,"MEAN_MOTION_DOT":0.00001767,"MEAN_MOTION_DDOT":0},{"OBJECT_NAME":"PELICAN-9","OBJECT_ID":"2026-100AR","EPOCH":"2026-07-16T16:23:19.783968","CLASSIFICATION_TYPE":"U","MEAN_MOTION":15.22656941,"ECCENTRICITY":0.00022486,"INCLINATION":97.3629,"RA_OF_ASC_NODE":94.9294,"ARG_OF_PERICENTER":111.6096,"MEAN_ANOMALY":248.538,"EPHEMERIS_TYPE":0,"NORAD_CAT_ID":69019,"ELEMENT_SET_NO":999,"REV_AT_EPOCH":1129,"BSTAR":0.000051502935,"MEAN_MOTION_DOT":0.0000113,"MEAN_MOTION_DDOT":0}]}
