PELICAN-1               
1 58296U 23174AS  26197.83856303  .00006429  00000+0  50104-4 0  9992
2 58296  97.4017 300.0203 0005785 199.5806 160.5236 15.72084807150822
PELICAN-2               
1 62631U 25009Y   26197.53283358 -.00000004  00000+0  18639-5 0  9992
2 62631  97.2051 288.0660 0002374 117.2299 242.9190 15.40622121 84071
PELICAN-3               
1 65315U 25188A   26198.17837490  .00004594  00000+0  11235-3 0  9995
2 65315  97.1983 273.8862 0001929 120.3972 239.7466 15.41294631 49938
PELICAN-4               
1 65316U 25188B   26197.74411785  .00004772  00000+0  12033-3 0  9998
2 65316  97.1997 273.6075 0001517  74.0674 286.0740 15.40339865 49865
PELICAN-5               
1 66667U 25276B   26197.87201077  .00002861  00000+0  93269-4 0  9999
2 66667  97.4165 272.8424 0000552 359.3826   0.7415 15.32642424 35066
PELICAN-6               
1 66703U 25276AP  26197.74264599  .00009528  00000+0  31596-3 0  9995
2 66703  97.3753 272.7125 0002497  36.6940 323.4472 15.31471289 35053
PELICAN-7               
1 69017U 26100AP  26198.16460214  .00001767  00000+0  76751-4 0  9992
2 69017  97.3855  95.5813 0003321  87.8940 272.2677 15.23613837 11372
PELICAN-9               
1 69019U 26100AR  26197.68286787  .00001130  00000+0  51503-4 0  9993
2 69019  97.3629  94.9294 0002248 111.6096 248.5380 15.22656941 11294
